KUZGTU 1 (RS47S)        
1 57217U 23091AV  26164.82907381  .00012279  00000+0  42703-3 0  9993
2 57217  97.5072 229.2747 0012377 108.3405 251.9183 15.29792075163868
SONATE-2                
1 59112U 24043Q   26164.35034011  .00039351  00000+0  51586-3 0  9995
2 59112  97.5519 314.5122 0006880 208.3384 151.7498 15.58447081127293
MESAT1                  
1 60209U 24125G   26164.84120969  .00058685  00000+0  64720-3 0  9992
2 60209  97.2294  22.2489 0009207 216.1475 143.9162 15.62868303109045
OOV-CUBE (TUBSAT-30)    
1 60240U 24128F   26164.52889216  .00002174  00000+0  17408-3 0  9995
2 60240  61.9948 238.3294 0045090 132.8997 227.5893 15.02760687105564
COLIBRI-S (RS67S)       
1 61746U 24199M   26164.89368029  .00022070  00000+0  42906-3 0  9997
2 61746  97.3001  38.7187 0006274 294.6495  65.4102 15.47600531136907
HORS 3 (RS81S)          
1 61753U 24199U   26164.80730273  .00036988  00000+0  55629-3 0  9999
2 61753  97.2987  40.5819 0003739 299.1281  60.9598 15.54756054137030
HORS 4 (RS82S)          
1 61754U 24199V   26164.84217794  .00049958  00000+0  63124-3 0  9992
2 61754  97.2935  41.7975 0002975 280.5783  79.5139 15.59396902137126
ARCTICSAT 1 (RS74S)     
1 61762U 24199AD  26164.60959222  .05153511  24376-5  11016-2 0  9990
2 61762  97.2771  48.7747 0009690 227.7420 132.3054 16.30670559137553
SIT-2086                
1 61764U 24199AF  26164.84587889  .00035736  00000+0  57537-3 0  9998
2 61764  97.2944  41.1095 0004348 268.6215  91.4540 15.52874417133914
HYPERVIEW 1G (RS66S)    
1 61772U 24199AP  26164.44200519  .00132494  00000+0  88637-3 0  9999
2 61772  97.2884  43.9750 0002868 238.7842 121.3142 15.74899790134088
ALTAIR (RS65S)          
1 61779U 24199AW  26164.85679701  .00010690  00000+0  29716-3 0  9990
2 61779  97.3037  34.2304 0011405 324.6563  35.3924 15.36972763136608
ASRTU-1 (AO-123)        
1 61781U 24199AY  26164.84178444  .00008115  00000+0  23596-3 0  9999
2 61781  97.3008  33.5434 0012582 327.3717  32.6749 15.35632443133411
SAMSAT-IONOSPHERE (RS7*)
1 61784U 24199BB  26164.84700634  .00044978  00000+0  61358-3 0  9999
2 61784  97.2956  40.6571 0005886 293.9151  66.1487 15.57358159137042
RTU MIREA 1 (RS51S)     
1 61785U 24199BC  26164.87876135  .00062109  00000+0  74366-3 0  9992
2 61785  97.2944  41.5045 0005403 285.7698  74.2963 15.60753603133958
TEVEL2-4                
1 63213U 25052D   26164.66098885  .00019485  00000+0  58447-3 0  9995
2 63213  97.3918  61.0474 0004795 110.7775 249.3982 15.34498104 69572
TEVEL2-5                
1 63214U 25052E   26164.68109434  .00018656  00000+0  56280-3 0  9993
2 63214  97.3917  61.0162 0004691 111.4679 248.7064 15.34327259 69578
TEVEL2-6                
1 63215U 25052F   26164.69334495  .00018726  00000+0  56554-3 0  9994
2 63215  97.3920  61.0131 0004626 111.4401 248.7336 15.34291680 69570
TEVEL2-1                
1 63217U 25052H   26164.65592041  .00018482  00000+0  56763-3 0  9996
2 63217  97.3891  60.6044 0004579 120.6431 239.5263 15.33760135 69559
TEVEL2-3                
1 63218U 25052J   26164.65068985  .00018701  00000+0  57335-3 0  9992
2 63218  97.3895  60.6205 0004575 120.5094 239.6601 15.33815100 69553
TEVEL2-2                
1 63219U 25052K   26164.65625368  .00018774  00000+0  57640-3 0  9996
2 63219  97.3888  60.6072 0004613 120.9946 239.1750 15.33768522 69556
TEVEL2-9                
1 63237U 25052AD  26164.69444860  .00016401  00000+0  53567-3 0  9995
2 63237  97.3952  60.0277 0007511 140.3804 219.7987 15.31800703 69493
TEVEL2-7                
1 63238U 25052AE  26164.66935050  .00016668  00000+0  54931-3 0  9990
2 63238  97.3956  59.9204 0007556 140.9014 219.2775 15.31507331 69483
TEVEL2-8                
1 63239U 25052AF  26164.67756597  .00015937  00000+0  52565-3 0  9998
2 63239  97.3953  59.9057 0007630 141.6953 218.4831 15.31490924 69483
INNOSAT 16 (RS92S7)     
1 64878U 25155C   26164.85338747  .00006073  00000+0  24286-3 0  9995
2 64878  97.4558 131.9917 0010151 187.0140 173.0957 15.25424951 80168
GEOSCAN 6 (RS92S6)      
1 64879U 25155D   26164.84635715  .00010248  00000+0  35408-3 0  9997
2 64879  97.4549 133.3855 0007922 173.2005 186.9344 15.30095113 80258
GEOSCAN 1 (RS92S1)      
1 64880U 25155E   26164.85009984  .00011464  00000+0  38860-3 0  9999
2 64880  97.4546 133.5340 0007858 172.9012 187.2342 15.30686491 80268
239ALFEROV (RS61S)      
1 64881U 25155F   26164.82449075  .00013480  00000+0  42666-3 0  9995
2 64881  97.4546 134.0585 0007569 169.6980 190.4419 15.32856915 80298
GEOSCAN 2 (RS92S2)      
1 64890U 25155Q   26164.84437484  .00011029  00000+0  37087-3 0  9996
2 64890  97.4545 133.6795 0007709 159.5150 200.6401 15.30956931 80278
GEOSCAN 5 (RS92S5)      
1 64891U 25155R   26164.87947881  .00014373  00000+0  45026-3 0  9994
2 64891  97.4539 134.2502 0006283 172.8663 187.2670 15.33177587 80316
GEOSCAN 4 (RS92S4)      
1 64892U 25155S   26164.86400176  .00015056  00000+0  46927-3 0  9995
2 64892  97.4542 134.2820 0006355 172.8799 187.2535 15.33329742 80316
