OBJECT_NAME,OBJECT_ID,EPOCH,MEAN_MOTION,ECCENTRICITY,INCLINATION,RA_OF_ASC_NODE,ARG_OF_PERICENTER,MEAN_ANOMALY,EPHEMERIS_TYPE,CLASSIFICATION_TYPE,NORAD_CAT_ID,ELEMENT_SET_NO,REV_AT_EPOCH,BSTAR,MEAN_MOTION_DOT,MEAN_MOTION_DDOT
KUZGTU 1 (RS47S),2023-091AV,2026-06-13T19:53:51.977184,15.29792075,.0012377,97.5072,229.2747,108.3405,251.9183,0,U,57217,999,16386,.42703E-3,.12279E-3,0
SONATE-2,2024-043Q,2026-06-13T08:24:29.385504,15.58447081,.00068801,97.5519,314.5122,208.3384,151.7498,0,U,59112,999,12729,.51585781E-3,.39351E-3,0
MESAT1,2024-125G,2026-06-13T20:11:20.517216,15.62868303,.0009207,97.2294,22.2489,216.1475,143.9162,0,U,60209,999,10904,.6472E-3,.58685E-3,0
OOV-CUBE (TUBSAT-30),2024-128F,2026-06-13T12:41:36.282624,15.02760687,.00450904,61.9948,238.3294,132.8997,227.5893,0,U,60240,999,10556,.17407525E-3,.2174E-4,0
COLIBRI-S (RS67S),2024-199M,2026-06-13T21:26:53.977056,15.47600531,.0006274,97.3001,38.7187,294.6495,65.4102,0,U,61746,999,13690,.42906E-3,.2207E-3,0
HORS 3 (RS81S),2024-199U,2026-06-13T19:22:30.955872,15.54756054,.0003739,97.2987,40.5819,299.1281,60.9598,0,U,61753,999,13703,.55629E-3,.36988E-3,0
HORS 4 (RS82S),2024-199V,2026-06-13T20:12:44.174016,15.59396902,.0002975,97.2935,41.7975,280.5783,79.5139,0,U,61754,999,13712,.63124E-3,.49958E-3,0
ARCTICSAT 1 (RS74S),2024-199AD,2026-06-13T14:37:48.767808,16.30670559,.000969,97.2771,48.7747,227.7420,132.3054,0,U,61762,999,13755,.11016E-2,.5153511E-1,.24376E-5
SIT-2086,2024-199AF,2026-06-13T20:18:03.936096,15.52874417,.0004348,97.2944,41.1095,268.6215,91.4540,0,U,61764,999,13391,.57537E-3,.35736E-3,0
HYPERVIEW 1G (RS66S),2024-199AP,2026-06-13T10:36:29.248416,15.74899790,.00028681,97.2884,43.9750,238.7842,121.3142,0,U,61772,999,13408,.88636789E-3,.132494E-2,0
ALTAIR (RS65S),2024-199AW,2026-06-13T20:33:47.261664,15.36972763,.0011405,97.3037,34.2304,324.6563,35.3924,0,U,61779,999,13660,.29716E-3,.1069E-3,0
ASRTU-1 (AO-123),2024-199AY,2026-06-13T20:12:10.175616,15.35632443,.0012582,97.3008,33.5434,327.3717,32.6749,0,U,61781,999,13341,.23596E-3,.8115E-4,0
SAMSAT-IONOSPHERE (RS75S),2024-199BB,2026-06-13T20:19:41.347776,15.57358159,.0005886,97.2956,40.6571,293.9151,66.1487,0,U,61784,999,13704,.61358E-3,.44978E-3,0
RTU MIREA 1 (RS51S),2024-199BC,2026-06-13T21:05:24.980640,15.60753603,.0005403,97.2944,41.5045,285.7698,74.2963,0,U,61785,999,13395,.74366E-3,.62109E-3,0
TEVEL2-4,2025-052D,2026-06-13T15:51:49.436640,15.34498104,.0004795,97.3918,61.0474,110.7775,249.3982,0,U,63213,999,6957,.58447E-3,.19485E-3,0
TEVEL2-5,2025-052E,2026-06-13T16:20:46.550976,15.34327259,.0004691,97.3917,61.0162,111.4679,248.7064,0,U,63214,999,6957,.5628E-3,.18656E-3,0
TEVEL2-6,2025-052F,2026-06-13T16:38:25.003680,15.34291680,.0004626,97.3920,61.0131,111.4401,248.7336,0,U,63215,999,6957,.56554E-3,.18726E-3,0
TEVEL2-1,2025-052H,2026-06-13T15:44:31.523424,15.33760135,.0004579,97.3891,60.6044,120.6431,239.5263,0,U,63217,999,6955,.56763E-3,.18482E-3,0
TEVEL2-3,2025-052J,2026-06-13T15:36:59.603040,15.33815100,.0004575,97.3895,60.6205,120.5094,239.6601,0,U,63218,999,6955,.57335E-3,.18701E-3,0
TEVEL2-2,2025-052K,2026-06-13T15:45:00.317952,15.33768522,.0004613,97.3888,60.6072,120.9946,239.1750,0,U,63219,999,6955,.5764E-3,.18774E-3,0
TEVEL2-9,2025-052AD,2026-06-13T16:40:00.359040,15.31800703,.0007511,97.3952,60.0277,140.3804,219.7987,0,U,63237,999,6949,.53567E-3,.16401E-3,0
TEVEL2-7,2025-052AE,2026-06-13T16:03:51.883200,15.31507331,.0007556,97.3956,59.9204,140.9014,219.2775,0,U,63238,999,6948,.54931E-3,.16668E-3,0
TEVEL2-8,2025-052AF,2026-06-13T16:15:41.699808,15.31490924,.000763,97.3953,59.9057,141.6953,218.4831,0,U,63239,999,6948,.52565E-3,.15937E-3,0
INNOSAT 16 (RS92S7),2025-155C,2026-06-13T20:28:52.677408,15.25424951,.0010151,97.4558,131.9917,187.0140,173.0957,0,U,64878,999,8016,.24286E-3,.6073E-4,0
GEOSCAN 6 (RS92S6),2025-155D,2026-06-13T20:18:45.257760,15.30095113,.0007922,97.4549,133.3855,173.2005,186.9344,0,U,64879,999,8025,.35408E-3,.10248E-3,0
GEOSCAN 1 (RS92S1),2025-155E,2026-06-13T20:24:08.626176,15.30686491,.0007858,97.4546,133.5340,172.9012,187.2342,0,U,64880,999,8026,.3886E-3,.11464E-3,0
239ALFEROV (RS61S),2025-155F,2026-06-13T19:47:16.000800,15.32856915,.0007569,97.4546,134.0585,169.6980,190.4419,0,U,64881,999,8029,.42666E-3,.1348E-3,0
GEOSCAN 2 (RS92S2),2025-155Q,2026-06-13T20:15:53.986176,15.30956931,.0007709,97.4545,133.6795,159.5150,200.6401,0,U,64890,999,8027,.37087E-3,.11029E-3,0
GEOSCAN 5 (RS92S5),2025-155R,2026-06-13T21:06:26.969184,15.33177587,.0006283,97.4539,134.2502,172.8663,187.2670,0,U,64891,999,8031,.45026E-3,.14373E-3,0
GEOSCAN 4 (RS92S4),2025-155S,2026-06-13T20:44:09.752064,15.33329742,.0006355,97.4542,134.2820,172.8799,187.2535,0,U,64892,999,8031,.46927E-3,.15056E-3,0
